[{"OBJECT_NAME":"STARLINK-5177","OBJECT_ID":"2022-136AR","EPOCH":"2026-03-09T22:38:23.289504","MEAN_MOTION":15.08695652,"ECCENTRICITY":0.00029211,"INCLINATION":53.2197,"RA_OF_ASC_NODE":332.8901,"ARG_OF_PERICENTER":104.7238,"MEAN_ANOMALY":255.4078,"EPHEMERIS_TYPE":0,"CLASSIFICATION_TYPE":"U","NORAD_CAT_ID":54090,"ELEMENT_SET_NO":999,"REV_AT_EPOCH":18702,"BSTAR":0.0018890681,"MEAN_MOTION_DOT":0.00029787,"MEAN_MOTION_DDOT":0},{"OBJECT_NAME":"COSMOS 397 DEB","OBJECT_ID":"1971-015S","EPOCH":"2026-03-09T10:33:28.052064","MEAN_MOTION":14.09044081,"ECCENTRICITY":0.04582659,"INCLINATION":65.7053,"RA_OF_ASC_NODE":78.3879,"ARG_OF_PERICENTER":64.4346,"MEAN_ANOMALY":300.3365,"EPHEMERIS_TYPE":0,"CLASSIFICATION_TYPE":"U","NORAD_CAT_ID":5091,"ELEMENT_SET_NO":999,"REV_AT_EPOCH":68954,"BSTAR":0.0011725806,"MEAN_MOTION_DOT":5.343e-5,"MEAN_MOTION_DDOT":0}]
